COMMENT,ORIGINATOR,NORAD_CAT_ID,OBJECT_NAME,OBJECT_TYPE,CLASSIFICATION_TYPE,INTLDES,EPOCH,EPOCH_MICROSECONDS,MEAN_MOTION,ECCENTRICITY,INCLINATION,RA_OF_ASC_NODE,ARG_OF_PERICENTER,MEAN_ANOMALY,EPHEMERIS_TYPE,ELEMENT_SET_NO,REV_AT_EPOCH,BSTAR,MEAN_MOTION_DOT,MEAN_MOTION_DDOT,FILE,TLE_LINE0,TLE_LINE1,TLE_LINE2,OBJECT_ID,OBJECT_NUMBER,SEMIMAJOR_AXIS,PERIOD,APOGEE,PERIGEE,DECAYED
GENERATED VIA SPACETRACK.ORG API,18 SPCS,51976,STARLINK-3663,PAYLOAD,U,22025W,2023-11-21 22:27:49,855680,15.08838776,0.0001363,53.2161,204.2594,87.1953,272.9195,0,999,9444,-4.2175e-05,-9.59e-06,0.0,4101817,0 STARLINK-3663,1 51976U 22025W   23325.93599370 -.00000959  00000-0 -42175-4 0  9997,2 51976  53.2161 204.2594 0001363  87.1953 272.9195 15.08838776 94449,2022-025W,51976,6917.884,95.438,540.692,538.806,0
GENERATED VIA SPACETRACK.ORG API,18 SPCS,51976,STARLINK-3663,PAYLOAD,U,22025W,2023-11-22 20:43:14,224512,15.08840153,0.0001387,53.2162,200.0977,82.7053,277.4096,0,999,9458,0.0005207,8.009e-05,0.0,4102346,0 STARLINK-3663,1 51976U 22025W   23326.86335908  .00008009  00000-0  52070-3 0  9991,2 51976  53.2162 200.0977 0001387  82.7053 277.4096 15.08840153 94584,2022-025W,51976,6917.88,95.438,540.704,538.785,0
GENERATED VIA SPACETRACK.ORG API,18 SPCS,51976,STARLINK-3663,PAYLOAD,U,22025W,2023-11-23 01:29:23,502048,15.08847573,0.0001551,53.2159,199.2019,88.2231,271.8939,0,999,9572,0.00070491,0.00010951,0.0,4102889,0 STARLINK-3663,1 51976U 22025W   23327.06207757  .00010951  00000-0  70491-3 0  9990,2 51976  53.2159 199.2019 0001551  88.2231 271.8939 15.08847573 95722,2022-025W,51976,6917.857,95.437,540.795,538.649,0
GENERATED VIA SPACETRACK.ORG API,18 SPCS,51976,STARLINK-3663,PAYLOAD,U,22025W,2023-11-23 01:29:23,502048,15.08847573,0.0001551,53.2159,199.2019,88.2231,271.8939,0,999,9461,0.00070491,0.00010951,0.0,4103560,0 STARLINK-3663,1 51976U 22025W   23327.06207757  .00010951  00000-0  70491-3 0  9990,2 51976  53.2159 199.2019 0001551  88.2231 271.8939 15.08847573 94619,2022-025W,51976,6917.857,95.437,540.795,538.649,0
GENERATED VIA SPACETRACK.ORG API,18 SPCS,51976,STARLINK-3663,PAYLOAD,U,22025W,2023-11-23 18:58:38,392896,15.08835308,0.0002153,53.216,195.9245,124.8939,235.2256,0,999,9583,0.00038407,5.829e-05,0.0,4104035,0 STARLINK-3663,1 51976U 22025W   23327.79072214  .00005829  00000-0  38407-3 0  9997,2 51976  53.2160 195.9245 0002153 124.8939 235.2256 15.08835308 95830,2022-025W,51976,6917.895,95.438,541.249,538.27,0
GENERATED VIA SPACETRACK.ORG API,18 SPCS,51976,STARLINK-3663,PAYLOAD,U,22025W,2023-11-23 22:09:24,848928,15.08837194,0.000149,53.2152,195.3295,66.1371,293.9777,0,999,9474,0.00014856,2.077e-05,0.0,4104120,0 STARLINK-3663,1 51976U 22025W   23327.92320427  .00002077  00000-0  14856-3 0  9998,2 51976  53.2152 195.3295 0001490  66.1371 293.9777 15.08837194 94744,2022-025W,51976,6917.889,95.438,540.785,538.723,0
GENERATED VIA SPACETRACK.ORG API,18 SPCS,51976,STARLINK-3663,PAYLOAD,U,22025W,2023-11-24 01:20:11,297184,15.08834941,0.0001488,53.2158,194.7421,76.9546,283.1612,0,999,9476,0.00016102,2.275e-05,0.0,4105170,0 STARLINK-3663,1 51976U 22025W   23328.05568631  .00002275  00000-0  16102-3 0  9990,2 51976  53.2158 194.7421 0001488  76.9546 283.1612 15.08834941 94762,2022-025W,51976,6917.896,95.438,540.79,538.731,0
GENERATED VIA SPACETRACK.ORG API,18 SPCS,51976,STARLINK-3663,PAYLOAD,U,22025W,2023-11-24 20:24:48,901536,15.08843107,0.0001562,53.2165,191.1733,102.1398,257.977,0,999,9488,0.00029932,4.479e-05,0.0,4105877,0 STARLINK-3663,1 51976U 22025W   23328.85056599  .00004479  00000-0  29932-3 0  9996,2 51976  53.2165 191.1733 0001562 102.1398 257.9770 15.08843107 94888,2022-025W,51976,6917.871,95.437,540.816,538.655,0
GENERATED VIA SPACETRACK.ORG API,18 SPCS,51976,STARLINK-3663,PAYLOAD,U,22025W,2023-11-25 01:10:58,216224,15.08847104,0.0001578,53.2163,190.2806,102.4993,257.6176,0,999,9602,0.0004064,6.187e-05,0.0,4106417,0 STARLINK-3663,1 51976U 22025W   23329.04928491  .00006187  00000-0  40640-3 0  9994,2 51976  53.2163 190.2806 0001578 102.4993 257.6176 15.08847104 96024,2022-025W,51976,6917.859,95.437,540.815,538.632,0
GENERATED VIA SPACETRACK.ORG API,18 SPCS,51976,STARLINK-3663,PAYLOAD,U,22025W,2023-11-25 13:54:03,253248,15.0884785,0.0001633,53.2159,187.9014,105.7343,254.3829,0,999,9499,0.00033684,5.078e-05,0.0,4106483,0 STARLINK-3663,1 51976U 22025W   23329.57920432  .00005078  00000-0  33684-3 0  9997,2 51976  53.2159 187.9014 0001633 105.7343 254.3829 15.08847850 94991,2022-025W,51976,6917.856,95.437,540.851,538.592,0
GENERATED VIA SPACETRACK.ORG API,18 SPCS,51976,STARLINK-3663,PAYLOAD,U,22025W,2023-11-25 20:15:35,246016,15.08865189,0.0001527,53.215,186.7117,103.3079,256.8083,0,999,9503,0.00067762,0.0001052,0.0,4106487,0 STARLINK-3663,1 51976U 22025W   23329.84415794  .00010520  00000-0  67762-3 0  9999,2 51976  53.2150 186.7117 0001527 103.3079 256.8083 15.08865189 95035,2022-025W,51976,6917.803,95.436,540.725,538.612,0
GENERATED VIA SPACETRACK.ORG API,18 SPCS,51976,STARLINK-3663,PAYLOAD,U,22025W,2023-11-25 20:15:35,246016,15.08865189,0.0001527,53.215,186.7117,103.3079,256.8083,0,999,9614,0.00067762,0.0001052,0.0,4107957,0 STARLINK-3663,1 51976U 22025W   23329.84415794  .00010520  00000-0  67762-3 0  9999,2 51976  53.2150 186.7117 0001527 103.3079 256.8083 15.08865189 96148,2022-025W,51976,6917.803,95.436,540.725,538.612,0
GENERATED VIA SPACETRACK.ORG API,18 SPCS,51976,STARLINK-3663,PAYLOAD,U,22025W,2023-11-26 20:06:22,315392,15.08846299,0.0001435,53.2152,182.2533,86.3219,273.7937,0,999,9629,5.9959e-05,6.67e-06,0.0,4108491,0 STARLINK-3663,1 51976U 22025W   23330.83775828  .00000667  00000-0  59959-4 0  9998,2 51976  53.2152 182.2533 0001435  86.3219 273.7937 15.08846299 96290,2022-025W,51976,6917.861,95.437,540.719,538.733,0
GENERATED VIA SPACETRACK.ORG API,18 SPCS,51976,STARLINK-3663,PAYLOAD,U,22025W,2023-11-26 20:06:22,315392,15.08846299,0.0001435,53.2152,182.2533,86.3219,273.7937,0,999,9518,5.9959e-05,6.67e-06,0.0,4108592,0 STARLINK-3663,1 51976U 22025W   23330.83775828  .00000667  00000-0  59959-4 0  9998,2 51976  53.2152 182.2533 0001435  86.3219 273.7937 15.08846299 95187,2022-025W,51976,6917.861,95.437,540.719,538.733,0
GENERATED VIA SPACETRACK.ORG API,18 SPCS,51976,STARLINK-3663,PAYLOAD,U,22025W,2023-11-26 23:17:08,451744,15.08846484,0.0001445,53.2148,181.6572,104.5011,255.6142,0,999,9520,5.3808e-05,5.69e-06,0.0,4109692,0 STARLINK-3663,1 51976U 22025W   23330.97023671  .00000569  00000-0  53808-4 0  9993,2 51976  53.2148 181.6572 0001445 104.5011 255.6142 15.08846484 95208,2022-025W,51976,6917.861,95.437,540.725,538.726,0
GENERATED VIA SPACETRACK.ORG API,18 SPCS,51976,STARLINK-3663,PAYLOAD,U,22025W,2023-11-27 19:57:09,865152,15.08838219,0.0001538,53.215,177.794,87.0574,273.0594,0,999,9644,-0.00015458,-2.747e-05,0.0,4110157,0 STARLINK-3663,1 51976U 22025W   23331.83136418 -.00002747  00000-0 -15458-3 0  9993,2 51976  53.2150 177.7940 0001538  87.0574 273.0594 15.08838219 96447,2022-025W,51976,6917.886,95.438,540.815,538.687,0
GENERATED VIA SPACETRACK.ORG API,18 SPCS,51976,STARLINK-3663,PAYLOAD,U,22025W,2023-11-27 21:32:32,982144,15.08838287,0.0001391,53.2153,177.4956,83.0888,277.0262,0,999,9534,-8.6304e-05,-1.661e-05,0.0,4110225,0 STARLINK-3663,1 51976U 22025W   23331.89760396 -.00001661  00000-0 -86304-4 0  9990,2 51976  53.2153 177.4956 0001391  83.0888 277.0262 15.08838287 95344,2022-025W,51976,6917.886,95.438,540.713,538.788,0
GENERATED VIA SPACETRACK.ORG API,18 SPCS,51976,STARLINK-3663,PAYLOAD,U,22025W,2023-11-28 13:26:24,373248,15.08839892,0.0001382,53.2163,174.5215,90.4457,269.6693,0,999,9544,9.3457e-05,1.2e-05,0.0,4111489,0 STARLINK-3663,1 51976U 22025W   23332.56000432  .00001200  00000-0  93457-4 0  9997,2 51976  53.2163 174.5215 0001382  90.4457 269.6693 15.08839892 95444,2022-025W,51976,6917.881,95.438,540.702,538.79,0
GENERATED VIA SPACETRACK.ORG API,18 SPCS,51976,STARLINK-3663,PAYLOAD,U,22025W,2023-11-28 19:47:56,565600,15.08844439,0.0001333,53.2159,173.3334,89.9108,270.2036,0,999,9659,0.00013045,1.789e-05,0.0,4112236,0 STARLINK-3663,1 51976U 22025W   23332.82496025  .00001789  00000-0  13045-3 0  9999,2 51976  53.2159 173.3334 0001333  89.9108 270.2036 15.08844439 96599,2022-025W,51976,6917.867,95.437,540.654,538.81,0
GENERATED VIA SPACETRACK.ORG API,18 SPCS,51976,STARLINK-3663,PAYLOAD,U,22025W,2023-11-28 19:47:56,565600,15.08844439,0.0001333,53.2159,173.3334,89.9108,270.2036,0,999,9548,0.00013045,1.789e-05,0.0,4112264,0 STARLINK-3663,1 51976U 22025W   23332.82496025  .00001789  00000-0  13045-3 0  9999,2 51976  53.2159 173.3334 0001333  89.9108 270.2036 15.08844439 95486,2022-025W,51976,6917.867,95.437,540.654,538.81,0
GENERATED VIA SPACETRACK.ORG API,18 SPCS,51976,STARLINK-3663,PAYLOAD,U,22025W,2023-11-29 13:17:11,722560,15.08835972,0.0001396,53.2162,170.0608,98.3048,261.8103,0,999,9559,6.7663e-05,7.89e-06,0.0,4113103,0 STARLINK-3663,1 51976U 22025W   23333.55360790  .00000789  00000-0  67663-4 0  9994,2 51976  53.2162 170.0608 0001396  98.3048 261.8103 15.08835972 95599,2022-025W,51976,6917.893,95.438,540.723,538.792,0
GENERATED VIA SPACETRACK.ORG API,18 SPCS,51976,STARLINK-3663,PAYLOAD,U,22025W,2023-11-29 19:38:44,152512,15.08837387,0.0001383,53.216,168.8718,96.3779,263.737,0,999,9674,8.3582e-05,1.042e-05,0.0,4113590,0 STARLINK-3663,1 51976U 22025W   23333.81856658  .00001042  00000-0  83582-4 0  9997,2 51976  53.2160 168.8718 0001383  96.3779 263.7370 15.08837387 96746,2022-025W,51976,6917.888,95.438,540.71,538.797,0
GENERATED VIA SPACETRACK.ORG API,18 SPCS,51976,STARLINK-3663,PAYLOAD,U,22025W,2023-12-01 19:20:18,54528,15.08841553,0.0001362,53.2164,159.95,92.0897,268.0251,0,999,9704,6.6453e-05,7.7e-06,0.0,4116866,0 STARLINK-3663,1 51976U 22025W   23335.80576452  .00000770  00000-0  66453-4 0  9994,2 51976  53.2164 159.9500 0001362  92.0897 268.0251 15.08841553 97041,2022-025W,51976,6917.876,95.437,540.683,538.798,0
